{
  "type": "FeatureCollection",
  "features": [
    {
      "type": "Feature",
      "properties": {
        "norad_id": 31816,
        "name": "FENGYUN 1C DEB",
        "group": "fengyun-1c-debris",
        "lat": 61.943825357534315,
        "lon": -64.75062993039596,
        "alt_km": 846.5039561358581,
        "timestamp": "2025-12-09T14:52:26.446286+00:00",
        "meta_object_name": "FENGYUN 1C DEB",
        "meta_object_id": "1999-025CHE",
        "meta_epoch": "2025-12-08T20:06:05.788800",
        "meta_mean_motion": 13.941635,
        "meta_eccentricity": 0.01211394,
        "meta_inclination": 98.9814,
        "meta_ra_of_asc_node": 97.2273,
        "meta_arg_of_pericenter": 165.1886,
        "meta_mean_anomaly": 348.8175,
        "meta_ephemeris_type": 0,
        "meta_classification_type": "U",
        "meta_norad_cat_id": 31816,
        "meta_element_set_no": 999,
        "meta_rev_at_epoch": 93639,
        "meta_bstar": 0.0019047535,
        "meta_mean_motion_dot": 2.643e-05,
        "meta_mean_motion_ddot": 0,
        "tle_line1": "1 31816U 99025CHE 25342.83756700  .00002643  00000+0  19048-2 0  9994",
        "tle_line2": "2 31816  98.9814  97.2273 0121139 165.1886 348.8175 13.94163500936390"
      },
      "geometry": {
        "type": "Point",
        "coordinates": [
          -64.75062993039596,
          61.943825357534315
        ]
      }
    },
    {
      "type": "Feature",
      "properties": {
        "norad_id": 31817,
        "name": "FENGYUN 1C DEB",
        "group": "fengyun-1c-debris",
        "lat": -79.4212533556486,
        "lon": 102.4808007619422,
        "alt_km": 726.8161792989458,
        "timestamp": "2025-12-09T14:52:26.446297+00:00",
        "meta_object_name": "FENGYUN 1C DEB",
        "meta_object_id": "1999-025CHF",
        "meta_epoch": "2025-12-08T18:00:46.182528",
        "meta_mean_motion": 14.65587232,
        "meta_eccentricity": 0.00629164,
        "meta_inclination": 98.9193,
        "meta_ra_of_asc_node": 338.7721,
        "meta_arg_of_pericenter": 87.7083,
        "meta_mean_anomaly": 273.132,
        "meta_ephemeris_type": 0,
        "meta_classification_type": "U",
        "meta_norad_cat_id": 31817,
        "meta_element_set_no": 999,
        "meta_rev_at_epoch": 71347,
        "meta_bstar": 0.0020251986,
        "meta_mean_motion_dot": 0.00011279,
        "meta_mean_motion_ddot": 0,
        "tle_line1": "1 31817U 99025CHF 25342.75053452  .00011279  00000+0  20252-2 0  9994",
        "tle_line2": "2 31817  98.9193 338.7721 0062916  87.7083 273.1320 14.65587232713472"
      },
      "geometry": {
        "type": "Point",
        "coordinates": [
          102.4808007619422,
          -79.4212533556486
        ]
      }
    },
    {
      "type": "Feature",
      "properties": {
        "norad_id": 31819,
        "name": "FENGYUN 1C DEB",
        "group": "fengyun-1c-debris",
        "lat": -45.009450149322454,
        "lon": 146.4333258614798,
        "alt_km": 812.6358607879511,
        "timestamp": "2025-12-09T14:52:26.446307+00:00",
        "meta_object_name": "FENGYUN 1C DEB",
        "meta_object_id": "1999-025CHH",
        "meta_epoch": "2025-12-08T19:20:45.037248",
        "meta_mean_motion": 14.30163149,
        "meta_eccentricity": 0.00871624,
        "meta_inclination": 98.4741,
        "meta_ra_of_asc_node": 334.2177,
        "meta_arg_of_pericenter": 332.1076,
        "meta_mean_anomaly": 27.5448,
        "meta_ephemeris_type": 0,
        "meta_classification_type": "U",
        "meta_norad_cat_id": 31819,
        "meta_element_set_no": 999,
        "meta_rev_at_epoch": 96637,
        "meta_bstar": 0.00077866259,
        "meta_mean_motion_dot": 2.057e-05,
        "meta_mean_motion_ddot": 0,
        "tle_line1": "1 31819U 99025CHH 25342.80607682  .00002057  00000+0  77866-3 0  9990",
        "tle_line2": "2 31819  98.4741 334.2177 0087162 332.1076  27.5448 14.30163149966373"
      },
      "geometry": {
        "type": "Point",
        "coordinates": [
          146.4333258614798,
          -45.009450149322454
        ]
      }
    },
    {
      "type": "Feature",
      "properties": {
        "norad_id": 31820,
        "name": "FENGYUN 1C DEB",
        "group": "fengyun-1c-debris",
        "lat": 15.16658641040329,
        "lon": -23.421241264931645,
        "alt_km": 674.8386464197465,
        "timestamp": "2025-12-09T14:52:26.446318+00:00",
        "meta_object_name": "FENGYUN 1C DEB",
        "meta_object_id": "1999-025CHJ",
        "meta_epoch": "2025-12-05T05:31:51.203136",
        "meta_mean_motion": 14.91947844,
        "meta_eccentricity": 0.01510454,
        "meta_inclination": 98.9594,
        "meta_ra_of_asc_node": 149.1402,
        "meta_arg_of_pericenter": 36.1593,
        "meta_mean_anomaly": 324.9721,
        "meta_ephemeris_type": 0,
        "meta_classification_type": "U",
        "meta_norad_cat_id": 31820,
        "meta_element_set_no": 999,
        "meta_rev_at_epoch": 98144,
        "meta_bstar": 0.0016610568,
        "meta_mean_motion_dot": 0.00020946,
        "meta_mean_motion_ddot": 0,
        "tle_line1": "1 31820U 99025CHJ 25339.23045374  .00020946  00000+0  16611-2 0  9996",
        "tle_line2": "2 31820  98.9594 149.1402 0151045  36.1593 324.9721 14.91947844981449"
      },
      "geometry": {
        "type": "Point",
        "coordinates": [
          -23.421241264931645,
          15.16658641040329
        ]
      }
    },
    {
      "type": "Feature",
      "properties": {
        "norad_id": 31821,
        "name": "FENGYUN 1C DEB",
        "group": "fengyun-1c-debris",
        "lat": 15.684069896428669,
        "lon": -133.5966678050889,
        "alt_km": 597.4527127025685,
        "timestamp": "2025-12-09T14:52:26.446328+00:00",
        "meta_object_name": "FENGYUN 1C DEB",
        "meta_object_id": "1999-025CHK",
        "meta_epoch": "2025-12-08T12:09:14.009760",
        "meta_mean_motion": 14.41688123,
        "meta_eccentricity": 0.0220877,
        "meta_inclination": 98.1556,
        "meta_ra_of_asc_node": 227.6467,
        "meta_arg_of_pericenter": 27.3046,
        "meta_mean_anomaly": 333.9554,
        "meta_ephemeris_type": 0,
        "meta_classification_type": "U",
        "meta_norad_cat_id": 31821,
        "meta_element_set_no": 999,
        "meta_rev_at_epoch": 93600,
        "meta_bstar": 0.0057642555,
        "meta_mean_motion_dot": 0.000252,
        "meta_mean_motion_ddot": 0,
        "tle_line1": "1 31821U 99025CHK 25342.50641215  .00025200  00000+0  57643-2 0  9995",
        "tle_line2": "2 31821  98.1556 227.6467 0220877  27.3046 333.9554 14.41688123936001"
      },
      "geometry": {
        "type": "Point",
        "coordinates": [
          -133.5966678050889,
          15.684069896428669
        ]
      }
    },
    {
      "type": "Feature",
      "properties": {
        "norad_id": 31823,
        "name": "FENGYUN 1C DEB",
        "group": "fengyun-1c-debris",
        "lat": -78.74614482979901,
        "lon": 126.76059815238648,
        "alt_km": 664.5945127100476,
        "timestamp": "2025-12-09T14:52:26.446338+00:00",
        "meta_object_name": "FENGYUN 1C DEB",
        "meta_object_id": "1999-025CHM",
        "meta_epoch": "2025-12-08T22:52:18.202080",
        "meta_mean_motion": 14.65601915,
        "meta_eccentricity": 0.0037102,
        "meta_inclination": 99.5112,
        "meta_ra_of_asc_node": 68.5782,
        "meta_arg_of_pericenter": 230.7679,
        "meta_mean_anomaly": 129.0225,
        "meta_ephemeris_type": 0,
        "meta_classification_type": "U",
        "meta_norad_cat_id": 31823,
        "meta_element_set_no": 999,
        "meta_rev_at_epoch": 96662,
        "meta_bstar": 0.001586,
        "meta_mean_motion_dot": 8.647e-05,
        "meta_mean_motion_ddot": 0,
        "tle_line1": "1 31823U 99025CHM 25342.95298845  .00008647  00000+0  15860-2 0  9994",
        "tle_line2": "2 31823  99.5112  68.5782 0037102 230.7679 129.0225 14.65601915966627"
      },
      "geometry": {
        "type": "Point",
        "coordinates": [
          126.76059815238648,
          -78.74614482979901
        ]
      }
    },
    {
      "type": "Feature",
      "properties": {
        "norad_id": 31825,
        "name": "FENGYUN 1C DEB",
        "group": "fengyun-1c-debris",
        "lat": 56.96005629103081,
        "lon": 176.74106554419458,
        "alt_km": 897.0780407201264,
        "timestamp": "2025-12-09T14:52:26.446349+00:00",
        "meta_object_name": "FENGYUN 1C DEB",
        "meta_object_id": "1999-025CHP",
        "meta_epoch": "2025-12-09T05:51:39.972960",
        "meta_mean_motion": 14.21627348,
        "meta_eccentricity": 0.01657901,
        "meta_inclination": 98.5906,
        "meta_ra_of_asc_node": 342.9359,
        "meta_arg_of_pericenter": 348.4988,
        "meta_mean_anomaly": 11.2421,
        "meta_ephemeris_type": 0,
        "meta_classification_type": "U",
        "meta_norad_cat_id": 31825,
        "meta_element_set_no": 999,
        "meta_rev_at_epoch": 95572,
        "meta_bstar": 0.0011959183,
        "meta_mean_motion_dot": 2.973e-05,
        "meta_mean_motion_ddot": 0,
        "tle_line1": "1 31825U 99025CHP 25343.24421265  .00002973  00000+0  11959-2 0  9994",
        "tle_line2": "2 31825  98.5906 342.9359 0165790 348.4988  11.2421 14.21627348955722"
      },
      "geometry": {
        "type": "Point",
        "coordinates": [
          176.74106554419458,
          56.96005629103081
        ]
      }
    }
  ]
}